[{"OBJECT_NAME":"O3B FM17","OBJECT_ID":"2019-020C","EPOCH":"2026-02-01T09:26:42.351072","MEAN_MOTION":5.00115366,"ECCENTRICITY":0.00027876,"INCLINATION":0.0435,"RA_OF_ASC_NODE":336.1071,"ARG_OF_PERICENTER":330.3762,"MEAN_ANOMALY":53.4835,"EPHEMERIS_TYPE":0,"CLASSIFICATION_TYPE":"U","NORAD_CAT_ID":44114,"ELEMENT_SET_NO":999,"REV_AT_EPOCH":12473,"BSTAR":0,"MEAN_MOTION_DOT":-2.5e-7,"MEAN_MOTION_DDOT":0},{"OBJECT_NAME":"O3B FM18","OBJECT_ID":"2019-020D","EPOCH":"2026-02-01T08:09:21.035520","MEAN_MOTION":5.00115196,"ECCENTRICITY":0.00027832,"INCLINATION":0.0498,"RA_OF_ASC_NODE":359.8318,"ARG_OF_PERICENTER":310.5899,"MEAN_ANOMALY":49.5466,"EPHEMERIS_TYPE":0,"CLASSIFICATION_TYPE":"U","NORAD_CAT_ID":44115,"ELEMENT_SET_NO":999,"REV_AT_EPOCH":12485,"BSTAR":0,"MEAN_MOTION_DOT":-2.5e-7,"MEAN_MOTION_DDOT":0},{"OBJECT_NAME":"SES-17","OBJECT_ID":"2021-095A","EPOCH":"2026-02-01T02:53:49.559136","MEAN_MOTION":1.0026892,"ECCENTRICITY":0.00011321,"INCLINATION":0.0199,"RA_OF_ASC_NODE":56.6529,"ARG_OF_PERICENTER":246.9861,"MEAN_ANOMALY":164.0125,"EPHEMERIS_TYPE":0,"CLASSIFICATION_TYPE":"U","NORAD_CAT_ID":49332,"ELEMENT_SET_NO":999,"REV_AT_EPOCH":1649,"BSTAR":0,"MEAN_MOTION_DOT":-2.81e-6,"MEAN_MOTION_DDOT":0},{"OBJECT_NAME":"SES-22","OBJECT_ID":"2022-071A","EPOCH":"2026-02-01T18:55:38.471808","MEAN_MOTION":1.00273076,"ECCENTRICITY":0.00011211,"INCLINATION":0.0085,"RA_OF_ASC_NODE":42.8003,"ARG_OF_PERICENTER":267.5213,"MEAN_ANOMALY":326.556,"EPHEMERIS_TYPE":0,"CLASSIFICATION_TYPE":"U","NORAD_CAT_ID":52933,"ELEMENT_SET_NO":999,"REV_AT_EPOCH":616,"BSTAR":0,"MEAN_MOTION_DOT":9.4e-7,"MEAN_MOTION_DDOT":0},{"OBJECT_NAME":"SES-20","OBJECT_ID":"2022-123A","EPOCH":"2026-02-01T14:42:28.074816","MEAN_MOTION":1.00269953,"ECCENTRICITY":0.00010113,"INCLINATION":0.0134,"RA_OF_ASC_NODE":79.9724,"ARG_OF_PERICENTER":346.0294,"MEAN_ANOMALY":183.2942,"EPHEMERIS_TYPE":0,"CLASSIFICATION_TYPE":"U","NORAD_CAT_ID":53960,"ELEMENT_SET_NO":999,"REV_AT_EPOCH":1217,"BSTAR":0,"MEAN_MOTION_DOT":-1.1e-6,"MEAN_MOTION_DDOT":0},{"OBJECT_NAME":"SES-21","OBJECT_ID":"2022-123B","EPOCH":"2026-02-01T19:29:38.858784","MEAN_MOTION":1.00270086,"ECCENTRICITY":8.892e-5,"INCLINATION":0.0248,"RA_OF_ASC_NODE":42.4929,"ARG_OF_PERICENTER":275.0162,"MEAN_ANOMALY":335.8917,"EPHEMERIS_TYPE":0,"CLASSIFICATION_TYPE":"U","NORAD_CAT_ID":53961,"ELEMENT_SET_NO":999,"REV_AT_EPOCH":585,"BSTAR":0,"MEAN_MOTION_DOT":6.0e-7,"MEAN_MOTION_DDOT":0},{"OBJECT_NAME":"O3B MPOWER F1","OBJECT_ID":"2022-174A","EPOCH":"2026-02-01T22:42:05.481792","MEAN_MOTION":5.0010308,"ECCENTRICITY":0.00049079,"INCLINATION":0.0638,"RA_OF_ASC_NODE":354.3887,"ARG_OF_PERICENTER":335.0288,"MEAN_ANOMALY":263.5516,"EPHEMERIS_TYPE":0,"CLASSIFICATION_TYPE":"U","NORAD_CAT_ID":54755,"ELEMENT_SET_NO":999,"REV_AT_EPOCH":5859,"BSTAR":0,"MEAN_MOTION_DOT":-2.6e-7,"MEAN_MOTION_DDOT":0},{"OBJECT_NAME":"O3B MPOWER F2","OBJECT_ID":"2022-174B","EPOCH":"2026-02-01T09:17:24.596736","MEAN_MOTION":5.00731378,"ECCENTRICITY":0.00017977,"INCLINATION":0.0645,"RA_OF_ASC_NODE":350.4228,"ARG_OF_PERICENTER":213.7335,"MEAN_ANOMALY":155.8278,"EPHEMERIS_TYPE":0,"CLASSIFICATION_TYPE":"U","NORAD_CAT_ID":54756,"ELEMENT_SET_NO":999,"REV_AT_EPOCH":5864,"BSTAR":0,"MEAN_MOTION_DOT":-2.5e-7,"MEAN_MOTION_DDOT":0},{"OBJECT_NAME":"SES-18","OBJECT_ID":"2023-038A","EPOCH":"2026-02-01T14:42:28.074816","MEAN_MOTION":1.00273405,"ECCENTRICITY":0.00029365,"INCLINATION":0.0718,"RA_OF_ASC_NODE":267.1887,"ARG_OF_PERICENTER":18.4001,"MEAN_ANOMALY":323.71,"EPHEMERIS_TYPE":0,"CLASSIFICATION_TYPE":"U","NORAD_CAT_ID":55970,"ELEMENT_SET_NO":999,"REV_AT_EPOCH":1074,"BSTAR":0,"MEAN_MOTION_DOT":-1.11e-6,"MEAN_MOTION_DDOT":0},{"OBJECT_NAME":"SES-19","OBJECT_ID":"2023-038B","EPOCH":"2026-02-01T18:39:38.587680","MEAN_MOTION":1.00268766,"ECCENTRICITY":0.00018928,"INCLINATION":0.0181,"RA_OF_ASC_NODE":287.1248,"ARG_OF_PERICENTER":21.8764,"MEAN_ANOMALY":327.9831,"EPHEMERIS_TYPE":0,"CLASSIFICATION_TYPE":"U","NORAD_CAT_ID":55971,"ELEMENT_SET_NO":999,"REV_AT_EPOCH":1072,"BSTAR":0,"MEAN_MOTION_DOT":0,"MEAN_MOTION_DDOT":0},{"OBJECT_NAME":"O3B MPOWER F4","OBJECT_ID":"2023-059A","EPOCH":"2026-02-01T15:35:08.156544","MEAN_MOTION":5.0011956,"ECCENTRICITY":0.00063752,"INCLINATION":0.057,"RA_OF_ASC_NODE":9.6445,"ARG_OF_PERICENTER":318.1707,"MEAN_ANOMALY":32.1383,"EPHEMERIS_TYPE":0,"CLASSIFICATION_TYPE":"U","NORAD_CAT_ID":56367,"ELEMENT_SET_NO":999,"REV_AT_EPOCH":5182,"BSTAR":0,"MEAN_MOTION_DOT":-2.5e-7,"MEAN_MOTION_DDOT":0},{"OBJECT_NAME":"O3B MPOWER F3","OBJECT_ID":"2023-059B","EPOCH":"2026-01-22T21:15:22.512672","MEAN_MOTION":4.99243546,"ECCENTRICITY":0.00142602,"INCLINATION":0.0543,"RA_OF_ASC_NODE":12.48,"ARG_OF_PERICENTER":319.1455,"MEAN_ANOMALY":28.2939,"EPHEMERIS_TYPE":0,"CLASSIFICATION_TYPE":"U","NORAD_CAT_ID":56368,"ELEMENT_SET_NO":999,"REV_AT_EPOCH":4746,"BSTAR":0,"MEAN_MOTION_DOT":-9.0e-8,"MEAN_MOTION_DDOT":0},{"OBJECT_NAME":"O3B MPOWER F5","OBJECT_ID":"2023-175A","EPOCH":"2026-02-01T13:59:04.239744","MEAN_MOTION":5.00115551,"ECCENTRICITY":0.00041483,"INCLINATION":0.0376,"RA_OF_ASC_NODE":357.2249,"ARG_OF_PERICENTER":314.9615,"MEAN_ANOMALY":47.7708,"EPHEMERIS_TYPE":0,"CLASSIFICATION_TYPE":"U","NORAD_CAT_ID":58346,"ELEMENT_SET_NO":999,"REV_AT_EPOCH":4265,"BSTAR":0,"MEAN_MOTION_DOT":-2.5e-7,"MEAN_MOTION_DDOT":0},{"OBJECT_NAME":"O3B MPOWER F6","OBJECT_ID":"2023-175B","EPOCH":"2026-01-20T11:44:44.302560","MEAN_MOTION":5.0011498,"ECCENTRICITY":0.00058783,"INCLINATION":0.044,"RA_OF_ASC_NODE":0.8814,"ARG_OF_PERICENTER":281.3856,"MEAN_ANOMALY":77.6639,"EPHEMERIS_TYPE":0,"CLASSIFICATION_TYPE":"U","NORAD_CAT_ID":58347,"ELEMENT_SET_NO":999,"REV_AT_EPOCH":4096,"BSTAR":0,"MEAN_MOTION_DOT":-1.2e-7,"MEAN_MOTION_DDOT":0},{"OBJECT_NAME":"ASTRA 1P (SES-24)","OBJECT_ID":"2024-115A","EPOCH":"2026-02-01T21:17:38.584896","MEAN_MOTION":1.00269928,"ECCENTRICITY":0.00056271,"INCLINATION":0.0861,"RA_OF_ASC_NODE":305.5202,"ARG_OF_PERICENTER":359.5455,"MEAN_ANOMALY":165.6046,"EPHEMERIS_TYPE":0,"CLASSIFICATION_TYPE":"U","NORAD_CAT_ID":60086,"ELEMENT_SET_NO":999,"REV_AT_EPOCH":584,"BSTAR":0,"MEAN_MOTION_DOT":1.1e-6,"MEAN_MOTION_DDOT":0},{"OBJECT_NAME":"O3B MPOWER F7","OBJECT_ID":"2024-244A","EPOCH":"2026-02-01T13:11:29.764320","MEAN_MOTION":5.0011519,"ECCENTRICITY":0.00062104,"INCLINATION":0.0655,"RA_OF_ASC_NODE":9.7656,"ARG_OF_PERICENTER":302.7386,"MEAN_ANOMALY":47.4358,"EPHEMERIS_TYPE":0,"CLASSIFICATION_TYPE":"U","NORAD_CAT_ID":62362,"ELEMENT_SET_NO":999,"REV_AT_EPOCH":1974,"BSTAR":0,"MEAN_MOTION_DOT":-2.5e-7,"MEAN_MOTION_DDOT":0},{"OBJECT_NAME":"O3B MPOWER F8","OBJECT_ID":"2024-244B","EPOCH":"2026-02-01T17:11:50.968032","MEAN_MOTION":5.00115843,"ECCENTRICITY":0.00068323,"INCLINATION":0.0611,"RA_OF_ASC_NODE":320.6486,"ARG_OF_PERICENTER":346.5953,"MEAN_ANOMALY":52.6862,"EPHEMERIS_TYPE":0,"CLASSIFICATION_TYPE":"U","NORAD_CAT_ID":62363,"ELEMENT_SET_NO":999,"REV_AT_EPOCH":1409,"BSTAR":0,"MEAN_MOTION_DOT":-2.5e-7,"MEAN_MOTION_DDOT":0}]
